GLOBALSTAR M035         
1 25851U 99037A   25343.33314866 -.00000070  00000+0 -24802-3 0  9997
2 25851  51.9983  24.3708 0013505 264.3940 179.7962 11.04540614115615
GLOBALSTAR M032         
1 25852U 99037B   25342.86992075 -.00000006  00000+0  19648-2 0  9998
2 25852  51.9929 198.5541 0013680  98.7550 261.4799 11.19075185154347
GLOBALSTAR M051         
1 25853U 99037C   25343.25492815 -.00000109  00000+0 -91212-3 0  9993
2 25853  51.9822 338.5609 0000116 125.0007 235.0814 11.42204220152390
GLOBALSTAR M030         
1 25854U 99037D   25342.71019151 -.00000074  00000+0  27174-4 0  9999
2 25854  51.9856 134.8809 0003311  22.2322 337.8638 11.55109944170212
GLOBALSTAR M048         
1 25872U 99041A   25343.21725284 -.00000032  00000+0  10341-2 0  9991
2 25872  51.9380 280.4535 0013314 124.5686  23.9002 11.33860763144837
GLOBALSTAR M026         
1 25873U 99041B   25342.70587253 -.00000020  00000+0  16112-2 0  9996
2 25873  51.9976 141.8860 0001911 160.4824 212.4316 11.06848767167819
GLOBALSTAR M043         
1 25874U 99041C   25343.28900682 -.00000051  00000+0  49721-3 0  9993
2 25874  51.9431  34.9018 0013454 247.2855 189.5873 11.25696399142599
GLOBALSTAR M028         
1 25875U 99041D   25343.26639943 -.00000046  00000+0  35679-3 0  9992
2 25875  51.9644  31.0043 0063629  91.9697 268.8453 12.50592566212086
